{"type": "FeatureCollection", "features": [{"type": "Feature", "properties": {"norad_id": 24876, "name": "GPS BIIR-2  (PRN 13)", "group": "gps-ops", "lat": 44.37293097033604, "lon": -115.54752487275744, "alt_km": 20067.94837442751, "timestamp": "2025-12-10T21:43:22.346697+00:00", "meta": {"OBJECT_NAME": "GPS BIIR-2  (PRN 13)", "OBJECT_ID": "1997-035A", "EPOCH": "2025-12-09T17:47:19.154688", "MEAN_MOTION": 2.00563565, "ECCENTRICITY": 0.00967483, "INCLINATION": 55.8939, "RA_OF_ASC_NODE": 105.9862, "ARG_OF_PERICENTER": 57.0132, "MEAN_ANOMALY": 303.8899, "EPHEMERIS_TYPE": 0, "CLASSIFICATION_TYPE": "U", "NORAD_CAT_ID": 24876, "ELEMENT_SET_NO": 999, "REV_AT_EPOCH": 20815, "BSTAR": 0, "MEAN_MOTION_DOT": 2.2e-07, "MEAN_MOTION_DDOT": 0}, "tle": {"line1": "1 24876U 97035A   25343.74119392  .00000022  00000+0  00000+0 0  9996", "line2": "2 24876  55.8939 105.9862 0096748  57.0132 303.8899  2.00563565208159"}}, "geometry": {"type": "Point", "coordinates": [-115.54752487275744, 44.37293097033604]}}, {"type": "Feature", "properties": {"norad_id": 26360, "name": "GPS BIIR-4  (PRN 20)", "group": "gps-ops", "lat": -26.523807556391187, "lon": -132.65143106255744, "alt_km": 20094.599254833327, "timestamp": "2025-12-10T21:43:22.346725+00:00", "meta": {"OBJECT_NAME": "GPS BIIR-4  (PRN 20)", "OBJECT_ID": "2000-025A", "EPOCH": "2025-12-10T14:19:49.835712", "MEAN_MOTION": 2.00567833, "ECCENTRICITY": 0.00388571, "INCLINATION": 55.0439, "RA_OF_ASC_NODE": 26.9245, "ARG_OF_PERICENTER": 241.7871, "MEAN_ANOMALY": 109.039, "EPHEMERIS_TYPE": 0, "CLASSIFICATION_TYPE": "U", "NORAD_CAT_ID": 26360, "ELEMENT_SET_NO": 999, "REV_AT_EPOCH": 18748, "BSTAR": 0, "MEAN_MOTION_DOT": -9.7e-07, "MEAN_MOTION_DDOT": 0}, "tle": {"line1": "1 26360U 00025A   25344.59710458 -.00000097  00000+0  00000+0 0  9996", "line2": "2 26360  55.0439  26.9245 0038857 241.7871 109.0390  2.00567833187488"}}, "geometry": {"type": "Point", "coordinates": [-132.65143106255744, -26.523807556391187]}}, {"type": "Feature", "properties": {"norad_id": 26407, "name": "GPS BIIR-5  (PRN 22)", "group": "gps-ops", "lat": 41.509025609962194, "lon": -98.8766142346535, "alt_km": 20300.199210878884, "timestamp": "2025-12-10T21:43:22.346742+00:00", "meta": {"OBJECT_NAME": "GPS BIIR-5  (PRN 22)", "OBJECT_ID": "2000-040A", "EPOCH": "2025-12-09T20:17:06.584640", "MEAN_MOTION": 2.00567874, "ECCENTRICITY": 0.01261721, "INCLINATION": 54.8914, "RA_OF_ASC_NODE": 222.6841, "ARG_OF_PERICENTER": 301.7549, "MEAN_ANOMALY": 65.7518, "EPHEMERIS_TYPE": 0, "CLASSIFICATION_TYPE": "U", "NORAD_CAT_ID": 26407, "ELEMENT_SET_NO": 999, "REV_AT_EPOCH": 18615, "BSTAR": 0, "MEAN_MOTION_DOT": 2e-08, "MEAN_MOTION_DDOT": 0}, "tle": {"line1": "1 26407U 00040A   25343.84521510  .00000002  00000+0  00000+0 0  9996", "line2": "2 26407  54.8914 222.6841 0126172 301.7549  65.7518  2.00567874186157"}}, "geometry": {"type": "Point", "coordinates": [-98.8766142346535, 41.509025609962194]}}, {"type": "Feature", "properties": {"norad_id": 27663, "name": "GPS BIIR-8  (PRN 16)", "group": "gps-ops", "lat": -8.016426496959314, "lon": 48.13437161452876, "alt_km": 20471.506315048373, "timestamp": "2025-12-10T21:43:22.346756+00:00", "meta": {"OBJECT_NAME": "GPS BIIR-8  (PRN 16)", "OBJECT_ID": "2003-005A", "EPOCH": "2025-12-10T07:26:08.155104", "MEAN_MOTION": 2.00571007, "ECCENTRICITY": 0.0147361, "INCLINATION": 54.9239, "RA_OF_ASC_NODE": 222.475, "ARG_OF_PERICENTER": 51.7666, "MEAN_ANOMALY": 67.0717, "EPHEMERIS_TYPE": 0, "CLASSIFICATION_TYPE": "U", "NORAD_CAT_ID": 27663, "ELEMENT_SET_NO": 999, "REV_AT_EPOCH": 16752, "BSTAR": 0, "MEAN_MOTION_DOT": 1e-08, "MEAN_MOTION_DDOT": 0}, "tle": {"line1": "1 27663U 03005A   25344.30981661  .00000001  00000+0  00000+0 0  9993", "line2": "2 27663  54.9239 222.4750 0147361  51.7666  67.0717  2.00571007167524"}}, "geometry": {"type": "Point", "coordinates": [48.13437161452876, -8.016426496959314]}}, {"type": "Feature", "properties": {"norad_id": 28190, "name": "GPS BIIR-11 (PRN 19)", "group": "gps-ops", "lat": -10.220194204503438, "lon": -83.97371688575075, "alt_km": 20471.993376703827, "timestamp": "2025-12-10T21:43:22.346768+00:00", "meta": {"OBJECT_NAME": "GPS BIIR-11 (PRN 19)", "OBJECT_ID": "2004-009A", "EPOCH": "2025-12-09T02:41:41.936352", "MEAN_MOTION": 2.00560834, "ECCENTRICITY": 0.01083049, "INCLINATION": 54.989, "RA_OF_ASC_NODE": 283.3651, "ARG_OF_PERICENTER": 167.5856, "MEAN_ANOMALY": 325.415, "EPHEMERIS_TYPE": 0, "CLASSIFICATION_TYPE": "U", "NORAD_CAT_ID": 28190, "ELEMENT_SET_NO": 999, "REV_AT_EPOCH": 15913, "BSTAR": 0, "MEAN_MOTION_DOT": -5.3e-07, "MEAN_MOTION_DDOT": 0}, "tle": {"line1": "1 28190U 04009A   25343.11229093 -.00000053  00000+0  00000+0 0  9994", "line2": "2 28190  54.9890 283.3651 0108304 167.5856 325.4150  2.00560834159136"}}, "geometry": {"type": "Point", "coordinates": [-83.97371688575075, -10.220194204503438]}}, {"type": "Feature", "properties": {"norad_id": 28474, "name": "GPS BIIR-13 (PRN 02)", "group": "gps-ops", "lat": 38.64391848130469, "lon": 6.187363752799329, "alt_km": 20251.757799783074, "timestamp": "2025-12-10T21:43:22.346781+00:00", "meta": {"OBJECT_NAME": "GPS BIIR-13 (PRN 02)", "OBJECT_ID": "2004-045A", "EPOCH": "2025-12-09T20:12:55.228896", "MEAN_MOTION": 2.00569305, "ECCENTRICITY": 0.01707094, "INCLINATION": 55.2421, "RA_OF_ASC_NODE": 332.5223, "ARG_OF_PERICENTER": 309.1205, "MEAN_ANOMALY": 51.0041, "EPHEMERIS_TYPE": 0, "CLASSIFICATION_TYPE": "U", "NORAD_CAT_ID": 28474, "ELEMENT_SET_NO": 999, "REV_AT_EPOCH": 15463, "BSTAR": 0, "MEAN_MOTION_DOT": -8.4e-07, "MEAN_MOTION_DDOT": 0}, "tle": {"line1": "1 28474U 04045A   25343.84230589 -.00000084  00000+0  00000+0 0  9995", "line2": "2 28474  55.2421 332.5223 0170709 309.1205  51.0041  2.00569305154630"}}, "geometry": {"type": "Point", "coordinates": [6.187363752799329, 38.64391848130469]}}, {"type": "Feature", "properties": {"norad_id": 28874, "name": "GPS BIIRM-1 (PRN 17)", "group": "gps-ops", "lat": 6.395887232956283, "lon": -74.7453847073187, "alt_km": 20081.432258159934, "timestamp": "2025-12-10T21:43:22.346793+00:00", "meta": {"OBJECT_NAME": "GPS BIIRM-1 (PRN 17)", "OBJECT_ID": "2005-038A", "EPOCH": "2025-12-10T14:00:21.521952", "MEAN_MOTION": 2.00578486, "ECCENTRICITY": 0.01317012, "INCLINATION": 55.0338, "RA_OF_ASC_NODE": 280.7877, "ARG_OF_PERICENTER": 293.4518, "MEAN_ANOMALY": 200.7371, "EPHEMERIS_TYPE": 0, "CLASSIFICATION_TYPE": "U", "NORAD_CAT_ID": 28874, "ELEMENT_SET_NO": 999, "REV_AT_EPOCH": 14805, "BSTAR": 0, "MEAN_MOTION_DOT": -6.4e-07, "MEAN_MOTION_DDOT": 0}, "tle": {"line1": "1 28874U 05038A   25344.58358243 -.00000064  00000+0  00000+0 0  9990", "line2": "2 28874  55.0338 280.7877 0131701 293.4518 200.7371  2.00578486148057"}}, "geometry": {"type": "Point", "coordinates": [-74.7453847073187, 6.395887232956283]}}, {"type": "Feature", "properties": {"norad_id": 29486, "name": "GPS BIIRM-2 (PRN 31)", "group": "gps-ops", "lat": -54.65531170823919, "lon": 66.95497177897684, "alt_km": 20415.481869292693, "timestamp": "2025-12-10T21:43:22.346805+00:00", "meta": {"OBJECT_NAME": "GPS BIIRM-2 (PRN 31)", "OBJECT_ID": "2006-042A", "EPOCH": "2025-12-10T13:09:40.823424", "MEAN_MOTION": 2.00554208, "ECCENTRICITY": 0.01073615, "INCLINATION": 54.6939, "RA_OF_ASC_NODE": 158.8276, "ARG_OF_PERICENTER": 51.9102, "MEAN_ANOMALY": 320.1807, "EPHEMERIS_TYPE": 0, "CLASSIFICATION_TYPE": "U", "NORAD_CAT_ID": 29486, "ELEMENT_SET_NO": 999, "REV_AT_EPOCH": 14061, "BSTAR": 0, "MEAN_MOTION_DOT": 7.8e-07, "MEAN_MOTION_DDOT": 0}, "tle": {"line1": "1 29486U 06042A   25344.54838916  .00000078  00000+0  00000+0 0  9996", "line2": "2 29486  54.6939 158.8276 0107361  51.9102 320.1807  2.00554208140619"}}, "geometry": {"type": "Point", "coordinates": [66.95497177897684, -54.65531170823919]}}, {"type": "Feature", "properties": {"norad_id": 29601, "name": "GPS BIIRM-3 (PRN 12)", "group": "gps-ops", "lat": -27.05662414718992, "lon": -159.4992250821712, "alt_km": 20303.718082492374, "timestamp": "2025-12-10T21:43:22.346816+00:00", "meta": {"OBJECT_NAME": "GPS BIIRM-3 (PRN 12)", "OBJECT_ID": "2006-052A", "EPOCH": "2025-12-09T22:55:07.366368", "MEAN_MOTION": 2.00573319, "ECCENTRICITY": 0.00877524, "INCLINATION": 54.9712, "RA_OF_ASC_NODE": 221.5087, "ARG_OF_PERICENTER": 87.406, "MEAN_ANOMALY": 273.6761, "EPHEMERIS_TYPE": 0, "CLASSIFICATION_TYPE": "U", "NORAD_CAT_ID": 29601, "ELEMENT_SET_NO": 999, "REV_AT_EPOCH": 13961, "BSTAR": 0, "MEAN_MOTION_DOT": 3e-08, "MEAN_MOTION_DDOT": 0}, "tle": {"line1": "1 29601U 06052A   25343.95494637  .00000003  00000+0  00000+0 0  9996", "line2": "2 29601  54.9712 221.5087 0087752  87.4060 273.6761  2.00573319139619"}}, "geometry": {"type": "Point", "coordinates": [-159.4992250821712, -27.05662414718992]}}, {"type": "Feature", "properties": {"norad_id": 32260, "name": "GPS BIIRM-4 (PRN 15)", "group": "gps-ops", "lat": 50.28416683017922, "lon": -153.28757534599578, "alt_km": 19773.378577292413, "timestamp": "2025-12-10T21:43:22.346829+00:00", "meta": {"OBJECT_NAME": "GPS BIIRM-4 (PRN 15)", "OBJECT_ID": "2007-047A", "EPOCH": "2025-12-10T06:15:19.310688", "MEAN_MOTION": 2.00564571, "ECCENTRICITY": 0.0164232, "INCLINATION": 53.9536, "RA_OF_ASC_NODE": 87.861, "ARG_OF_PERICENTER": 85.2178, "MEAN_ANOMALY": 276.6503, "EPHEMERIS_TYPE": 0, "CLASSIFICATION_TYPE": "U", "NORAD_CAT_ID": 32260, "ELEMENT_SET_NO": 999, "REV_AT_EPOCH": 13302, "BSTAR": 0, "MEAN_MOTION_DOT": -1.7e-07, "MEAN_MOTION_DDOT": 0}, "tle": {"line1": "1 32260U 07047A   25344.26064017 -.00000017  00000+0  00000+0 0  9992", "line2": "2 32260  53.9536  87.8610 0164232  85.2178 276.6503  2.00564571133023"}}, "geometry": {"type": "Point", "coordinates": [-153.28757534599578, 50.28416683017922]}}]}